STARLINK-37028          
1 68270U 26055J   26099.23403300  .00223013  00000+0  11018-2 0  9995
2 68270  53.1580 184.1418 0001484  46.7113 313.4033 15.80925940  4513
STARLINK-37029          
1 68271U 26055K   26099.23478171  .00207136  00000+0  10243-2 0  9991
2 68271  53.1579 184.1473 0001557  60.7537 299.3641 15.80952209  4515
STARLINK-36974          
1 68272U 26055L   26099.23328172  .00190078  00000+0  94277-3 0  9993
2 68272  53.1580 184.1369 0001054  76.2480 283.8660 15.80936230  4518
STARLINK-37019          
1 68273U 26055M   26099.23253215  .00186858  00000+0  92787-3 0  9994
2 68273  53.1582 184.1310 0001014  94.3983 265.7156 15.80920670  4512
STARLINK-37129          
1 68274U 26055N   26099.23178019  .00216555  00000+0  10702-2 0  9997
2 68274  53.1581 184.1262 0001071  30.1053 330.0032 15.80938695  4512
STARLINK-37123          
1 68275U 26055P   26099.23103085  .00175589  00000+0  87285-3 0  9991
2 68275  53.1582 184.1216 0001236  42.5703 317.5416 15.80930986  4516
STARLINK-37125          
1 68276U 26055Q   26099.23028129  .00237584  00000+0  11710-2 0  9990
2 68276  53.1582 184.1161 0001110  80.6607 279.4541 15.80936721  4511
STARLINK-36989          
1 68277U 26055R   26099.29125164  .00142725  00000+0  71319-3 0  9998
2 68277  53.1580 183.7831 0001594 106.8445 253.2753 15.80920466  4521
STARLINK-36982          
1 68278U 26055S   26099.22878010  .00210468  00000+0  10398-2 0  9996
2 68278  53.1580 184.1065 0001479  59.2145 300.9024 15.80961732  4517
STARLINK-36934          
1 68279U 26055T   26099.22952887  .00199236  00000+0  98619-3 0  9994
2 68279  53.1583 184.1120 0000822  50.8411 309.2685 15.80953338  4515
STARLINK-37070          
1 68280U 26055U   26099.29049893  .00263058  00000+0  12896-2 0  9993
2 68280  53.1581 183.7789 0001205  93.8316 266.2844 15.80982408  4528
STARLINK-37134          
1 68281U 26055V   26099.28900036  .00150661  00000+0  75147-3 0  9992
2 68281  53.1579 183.7673 0001575  81.7401 278.3801 15.80934565  4527
STARLINK-37160          
1 68282U 26055W   26099.28974779  .00235427  00000+0  11584-2 0  9996
2 68282  53.1579 183.7740 0001186  91.5326 268.5833 15.80978623  4525
STARLINK-37124          
1 68283U 26055X   26099.28823636  .00200468  00000+0  99042-3 0  9995
2 68283  53.1582 183.7638 0001412  95.4766 264.6418 15.80990777  4529
STARLINK-37159          
1 68284U 26055Y   26099.28749034  .00219642  00000+0  10824-2 0  9999
2 68284  53.1578 183.7581 0002102  80.9581 279.1680 15.80989161  4520
STARLINK-36725          
1 68285U 26055Z   26099.28675580  .00201787  00000+0  10001-2 0  9992
2 68285  53.1579 183.7527 0001013  82.1062 278.0076 15.80918857  4521
