[{"OBJECT_NAME":"STARLINK-37028","OBJECT_ID":"2026-055J","EPOCH":"2026-04-09T05:37:00.451200","MEAN_MOTION":15.8092594,"ECCENTRICITY":0.00014849,"INCLINATION":53.158,"RA_OF_ASC_NODE":184.1418,"ARG_OF_PERICENTER":46.7113,"MEAN_ANOMALY":313.4033,"EPHEMERIS_TYPE":0,"CLASSIFICATION_TYPE":"U","NORAD_CAT_ID":68270,"ELEMENT_SET_NO":999,"REV_AT_EPOCH":451,"BSTAR":0.0011018029,"MEAN_MOTION_DOT":0.00223013,"MEAN_MOTION_DDOT":0},{"OBJECT_NAME":"STARLINK-37029","OBJECT_ID":"2026-055K","EPOCH":"2026-04-09T05:38:05.139744","MEAN_MOTION":15.80952209,"ECCENTRICITY":0.0001557,"INCLINATION":53.1579,"RA_OF_ASC_NODE":184.1473,"ARG_OF_PERICENTER":60.7537,"MEAN_ANOMALY":299.3641,"EPHEMERIS_TYPE":0,"CLASSIFICATION_TYPE":"U","NORAD_CAT_ID":68271,"ELEMENT_SET_NO":999,"REV_AT_EPOCH":451,"BSTAR":0.0010242657,"MEAN_MOTION_DOT":0.00207136,"MEAN_MOTION_DDOT":0},{"OBJECT_NAME":"STARLINK-36974","OBJECT_ID":"2026-055L","EPOCH":"2026-04-09T05:35:55.540608","MEAN_MOTION":15.8093623,"ECCENTRICITY":0.00010542,"INCLINATION":53.158,"RA_OF_ASC_NODE":184.1369,"ARG_OF_PERICENTER":76.248,"MEAN_ANOMALY":283.866,"EPHEMERIS_TYPE":0,"CLASSIFICATION_TYPE":"U","NORAD_CAT_ID":68272,"ELEMENT_SET_NO":999,"REV_AT_EPOCH":451,"BSTAR":0.00094277015,"MEAN_MOTION_DOT":0.00190078,"MEAN_MOTION_DDOT":0},{"OBJECT_NAME":"STARLINK-37019","OBJECT_ID":"2026-055M","EPOCH":"2026-04-09T05:34:50.777760","MEAN_MOTION":15.8092067,"ECCENTRICITY":0.00010149,"INCLINATION":53.1582,"RA_OF_ASC_NODE":184.131,"ARG_OF_PERICENTER":94.3983,"MEAN_ANOMALY":265.7156,"EPHEMERIS_TYPE":0,"CLASSIFICATION_TYPE":"U","NORAD_CAT_ID":68273,"ELEMENT_SET_NO":999,"REV_AT_EPOCH":451,"BSTAR":0.00092786983,"MEAN_MOTION_DOT":0.00186858,"MEAN_MOTION_DDOT":0},{"OBJECT_NAME":"STARLINK-37129","OBJECT_ID":"2026-055N","EPOCH":"2026-04-09T05:33:45.808416","MEAN_MOTION":15.80938695,"ECCENTRICITY":0.00010717,"INCLINATION":53.1581,"RA_OF_ASC_NODE":184.1262,"ARG_OF_PERICENTER":30.1053,"MEAN_ANOMALY":330.0032,"EPHEMERIS_TYPE":0,"CLASSIFICATION_TYPE":"U","NORAD_CAT_ID":68274,"ELEMENT_SET_NO":999,"REV_AT_EPOCH":451,"BSTAR":0.0010701758,"MEAN_MOTION_DOT":0.00216555,"MEAN_MOTION_DDOT":0},{"OBJECT_NAME":"STARLINK-37123","OBJECT_ID":"2026-055P","EPOCH":"2026-04-09T05:32:41.065440","MEAN_MOTION":15.80930986,"ECCENTRICITY":0.0001236,"INCLINATION":53.1582,"RA_OF_ASC_NODE":184.1216,"ARG_OF_PERICENTER":42.5703,"MEAN_ANOMALY":317.5416,"EPHEMERIS_TYPE":0,"CLASSIFICATION_TYPE":"U","NORAD_CAT_ID":68275,"ELEMENT_SET_NO":999,"REV_AT_EPOCH":451,"BSTAR":0.00087285069,"MEAN_MOTION_DOT":0.00175589,"MEAN_MOTION_DDOT":0},{"OBJECT_NAME":"STARLINK-37125","OBJECT_ID":"2026-055Q","EPOCH":"2026-04-09T05:31:36.303456","MEAN_MOTION":15.80936721,"ECCENTRICITY":0.000111,"INCLINATION":53.1582,"RA_OF_ASC_NODE":184.1161,"ARG_OF_PERICENTER":80.6607,"MEAN_ANOMALY":279.4541,"EPHEMERIS_TYPE":0,"CLASSIFICATION_TYPE":"U","NORAD_CAT_ID":68276,"ELEMENT_SET_NO":999,"REV_AT_EPOCH":451,"BSTAR":0.0011709936,"MEAN_MOTION_DOT":0.00237584,"MEAN_MOTION_DDOT":0},{"OBJECT_NAME":"STARLINK-36989","OBJECT_ID":"2026-055R","EPOCH":"2026-04-09T06:59:24.141696","MEAN_MOTION":15.80920466,"ECCENTRICITY":0.00015948,"INCLINATION":53.158,"RA_OF_ASC_NODE":183.7831,"ARG_OF_PERICENTER":106.8445,"MEAN_ANOMALY":253.2753,"EPHEMERIS_TYPE":0,"CLASSIFICATION_TYPE":"U","NORAD_CAT_ID":68277,"ELEMENT_SET_NO":999,"REV_AT_EPOCH":452,"BSTAR":0.00071319071,"MEAN_MOTION_DOT":0.00142725,"MEAN_MOTION_DDOT":0},{"OBJECT_NAME":"STARLINK-36982","OBJECT_ID":"2026-055S","EPOCH":"2026-04-09T05:29:26.600640","MEAN_MOTION":15.80961732,"ECCENTRICITY":0.00014794,"INCLINATION":53.158,"RA_OF_ASC_NODE":184.1065,"ARG_OF_PERICENTER":59.2145,"MEAN_ANOMALY":300.9024,"EPHEMERIS_TYPE":0,"CLASSIFICATION_TYPE":"U","NORAD_CAT_ID":68278,"ELEMENT_SET_NO":999,"REV_AT_EPOCH":451,"BSTAR":0.0010398299,"MEAN_MOTION_DOT":0.00210468,"MEAN_MOTION_DDOT":0},{"OBJECT_NAME":"STARLINK-36934","OBJECT_ID":"2026-055T","EPOCH":"2026-04-09T05:30:31.294368","MEAN_MOTION":15.80953338,"ECCENTRICITY":8.222e-5,"INCLINATION":53.1583,"RA_OF_ASC_NODE":184.112,"ARG_OF_PERICENTER":50.8411,"MEAN_ANOMALY":309.2685,"EPHEMERIS_TYPE":0,"CLASSIFICATION_TYPE":"U","NORAD_CAT_ID":68279,"ELEMENT_SET_NO":999,"REV_AT_EPOCH":451,"BSTAR":0.00098618919,"MEAN_MOTION_DOT":0.00199236,"MEAN_MOTION_DDOT":0},{"OBJECT_NAME":"STARLINK-37070","OBJECT_ID":"2026-055U","EPOCH":"2026-04-09T06:58:19.107552","MEAN_MOTION":15.80982408,"ECCENTRICITY":0.00012054,"INCLINATION":53.1581,"RA_OF_ASC_NODE":183.7789,"ARG_OF_PERICENTER":93.8316,"MEAN_ANOMALY":266.2844,"EPHEMERIS_TYPE":0,"CLASSIFICATION_TYPE":"U","NORAD_CAT_ID":68280,"ELEMENT_SET_NO":999,"REV_AT_EPOCH":452,"BSTAR":0.0012896126,"MEAN_MOTION_DOT":0.00263058,"MEAN_MOTION_DDOT":0},{"OBJECT_NAME":"STARLINK-37134","OBJECT_ID":"2026-055V","EPOCH":"2026-04-09T06:56:09.631104","MEAN_MOTION":15.80934565,"ECCENTRICITY":0.00015755,"INCLINATION":53.1579,"RA_OF_ASC_NODE":183.7673,"ARG_OF_PERICENTER":81.7401,"MEAN_ANOMALY":278.3801,"EPHEMERIS_TYPE":0,"CLASSIFICATION_TYPE":"U","NORAD_CAT_ID":68281,"ELEMENT_SET_NO":999,"REV_AT_EPOCH":452,"BSTAR":0.00075147187,"MEAN_MOTION_DOT":0.00150661,"MEAN_MOTION_DDOT":0},{"OBJECT_NAME":"STARLINK-37160","OBJECT_ID":"2026-055W","EPOCH":"2026-04-09T06:57:14.209056","MEAN_MOTION":15.80978623,"ECCENTRICITY":0.00011861,"INCLINATION":53.1579,"RA_OF_ASC_NODE":183.774,"ARG_OF_PERICENTER":91.5326,"MEAN_ANOMALY":268.5833,"EPHEMERIS_TYPE":0,"CLASSIFICATION_TYPE":"U","NORAD_CAT_ID":68282,"ELEMENT_SET_NO":999,"REV_AT_EPOCH":452,"BSTAR":0.001158448,"MEAN_MOTION_DOT":0.00235427,"MEAN_MOTION_DDOT":0},{"OBJECT_NAME":"STARLINK-37124","OBJECT_ID":"2026-055X","EPOCH":"2026-04-09T06:55:03.621504","MEAN_MOTION":15.80990777,"ECCENTRICITY":0.00014128,"INCLINATION":53.1582,"RA_OF_ASC_NODE":183.7638,"ARG_OF_PERICENTER":95.4766,"MEAN_ANOMALY":264.6418,"EPHEMERIS_TYPE":0,"CLASSIFICATION_TYPE":"U","NORAD_CAT_ID":68283,"ELEMENT_SET_NO":999,"REV_AT_EPOCH":452,"BSTAR":0.00099041888,"MEAN_MOTION_DOT":0.00200468,"MEAN_MOTION_DDOT":0},{"OBJECT_NAME":"STARLINK-37159","OBJECT_ID":"2026-055Y","EPOCH":"2026-04-09T06:53:59.165376","MEAN_MOTION":15.80989161,"ECCENTRICITY":0.00021028,"INCLINATION":53.1578,"RA_OF_ASC_NODE":183.7581,"ARG_OF_PERICENTER":80.9581,"MEAN_ANOMALY":279.168,"EPHEMERIS_TYPE":0,"CLASSIFICATION_TYPE":"U","NORAD_CAT_ID":68284,"ELEMENT_SET_NO":999,"REV_AT_EPOCH":452,"BSTAR":0.0010824458,"MEAN_MOTION_DOT":0.00219642,"MEAN_MOTION_DDOT":0},{"OBJECT_NAME":"STARLINK-36725","OBJECT_ID":"2026-055Z","EPOCH":"2026-04-09T06:52:55.701120","MEAN_MOTION":15.80918857,"ECCENTRICITY":0.00010135,"INCLINATION":53.1579,"RA_OF_ASC_NODE":183.7527,"ARG_OF_PERICENTER":82.1062,"MEAN_ANOMALY":278.0076,"EPHEMERIS_TYPE":0,"CLASSIFICATION_TYPE":"U","NORAD_CAT_ID":68285,"ELEMENT_SET_NO":999,"REV_AT_EPOCH":452,"BSTAR":0.0010000659,"MEAN_MOTION_DOT":0.00201787,"MEAN_MOTION_DDOT":0}]
